{
    "links": {
        "self": "http://www.neowsapp.com/rest/v1/neo/3555652?api_key=iIulBulltgU6a56xZRHN4H3l9WmuAYTsLGpBGhQ2"
    },
    "id": "3555652",
    "neo_reference_id": "3555652",
    "name": "(2011 BW10)",
    "designation": "2011 BW10",
    "nasa_jpl_url": "http://ssd.jpl.nasa.gov/sbdb.cgi?sstr=3555652",
    "absolute_magnitude_h": 25.2,
    "estimated_diameter": {
        "kilometers": {
            "estimated_diameter_min": 0.0242412481,
            "estimated_diameter_max": 0.0542050786
        },
        "meters": {
            "estimated_diameter_min": 24.2412481101,
            "estimated_diameter_max": 54.2050786336
        },
        "miles": {
            "estimated_diameter_min": 0.0150628086,
            "estimated_diameter_max": 0.0336814639
        },
        "feet": {
            "estimated_diameter_min": 79.5316564495,
            "estimated_diameter_max": 177.8381901842
        }
    },
    "is_potentially_hazardous_asteroid": false,
    "close_approach_data": [
        {
            "close_approach_date": "2008-10-14",
            "close_approach_date_full": "2008-Oct-14 03:57",
            "epoch_date_close_approach": 1223956620000,
            "relative_velocity": {
                "kilometers_per_second": "28.5550658554",
                "kilometers_per_hour": "102798.2370794101",
                "miles_per_hour": "63874.8268119257"
            },
            "miss_distance": {
                "astronomical": "0.0766294231",
                "lunar": "29.8088455859",
                "kilometers": "11463598.475088797",
                "miles": "7123149.7875755186"
            },
            "orbiting_body": "Venus"
        },
        {
            "close_approach_date": "2011-01-20",
            "close_approach_date_full": "2011-Jan-20 10:26",
            "epoch_date_close_approach": 1295519160000,
            "relative_velocity": {
                "kilometers_per_second": "23.166942597",
                "kilometers_per_hour": "83400.993349137",
                "miles_per_hour": "51822.1338951902"
            },
            "miss_distance": {
                "astronomical": "0.0211841297",
                "lunar": "8.2406264533",
                "kilometers": "3169100.680923739",
                "miles": "1969187.8506720382"
            },
            "orbiting_body": "Earth"
        },
        {
            "close_approach_date": "2013-02-05",
            "close_approach_date_full": "2013-Feb-05 18:59",
            "epoch_date_close_approach": 1360090740000,
            "relative_velocity": {
                "kilometers_per_second": "34.36801439",
                "kilometers_per_hour": "123724.851803937",
                "miles_per_hour": "76877.8113889519"
            },
            "miss_distance": {
                "astronomical": "0.3504100558",
                "lunar": "136.3095117062",
                "kilometers": "52420597.974261146",
                "miles": "32572649.1673939748"
            },
            "orbiting_body": "Earth"
        }
    ],
    "orbital_data": {
        "orbit_id": "8",
        "orbit_determination_date": "2019-07-16 06:14:07",
        "first_observation_date": "2011-01-24",
        "last_observation_date": "2011-01-26",
        "data_arc_in_days": 2,
        "observations_used": 26,
        "orbit_uncertainty": "8",
        "minimum_orbit_intersection": ".0145557",
        "jupiter_tisserand_invariant": "3.983",
        "epoch_osculation": "2455586.5",
        "eccentricity": ".7215750522226855",
        "semi_major_axis": "1.61841857623154",
        "inclination": "5.913215637022056",
        "ascending_node_longitude": "308.7210440331458",
        "orbital_period": "752.0292086368652",
        "perihelion_distance": ".4506081075691022",
        "perihelion_argument": "64.65002451876224",
        "aphelion_distance": "2.786229044893977",
        "perihelion_time": "2455534.878017395699",
        "mean_anomaly": "24.71169141320152",
        "mean_motion": ".4787048107513526",
        "equinox": "J2000",
        "orbit_class": {
            "orbit_class_type": "APO",
            "orbit_class_description": "Near-Earth asteroid orbits which cross the Earth’s orbit similar to that of 1862 Apollo",
            "orbit_class_range": "a (semi-major axis) > 1.0 AU; q (perihelion) < 1.017 AU"
        }
    },
    "is_sentry_object": false
}